{"version": 0.6, "generator": "Overpass API 0.7.60 f4c14d41", "osm3s": {"timestamp_osm_base": "2023-04-23T19:28:21Z", "copyright": "The data included in this document is from www.openstreetmap.org. The data is made available under ODbL."}, "elements": [{"type": "node", "id": 60167109, "lat": 48.4204277, "lon": -123.3173424, "tags": {"amenity": "cafe", "created_by": "Potlatch alpha", "name": "Demitasse Cafe"}}, {"type": "node", "id": 247822856, "lat": 48.4378547, "lon": -123.312987, "tags": {"amenity": "cafe", "name": "Pure Vanilla Bakery and Cafe", "name:en": "Pure Vanilla Bakery and Cafe"}}, {"type": "node", "id": 247822876, "lat": 48.4315737, "lon": -123.323731, "tags": {"amenity": "cafe", "brand": "Starbucks", "brand:wikidata": "Q37158", "brand:wikipedia": "en:Starbucks", "cuisine": "coffee_shop", "name": "Starbucks", "official_name": "Starbucks Coffee", "takeaway": "yes"}}, {"type": "node", "id": 267430960, "lat": 48.5243562, "lon": -123.4311522, "tags": {"amenity": "cafe", "created_by": "Potlatch 0.9c", "name": "Prospect Lake Market", "shop": "convenience"}}, {"type": "node", "id": 279408376, "lat": 48.4449801, "lon": -123.3343155, "tags": {"amenity": "cafe", "cuisine": "coffee_shop", "internet_access": "yes", "name": "Hillside Coffee and Tea"}}, {"type": "node", "id": 280632803, "lat": 48.4266148, "lon": -123.320039, "tags": {"amenity": "cafe", "created_by": "Potlatch 0.10f", "name": "Oak Bay Serious Coffee"}}, {"type": "node", "id": 281135656, "lat": 48.4326272, "lon": -123.3210976, "tags": {"amenity": "cafe", "created_by": "Potlatch 0.10", "name": "LatteOne"}}, {"type": "node", "id": 282812231, "lat": 48.4766637, "lon": -123.3327754, "tags": {"addr:housenumber": "4077", "addr:street": "Shelbourne Street", "amenity": "cafe", "brand": "Starbucks", "brand:wikidata": "Q37158", "brand:wikipedia": "en:Starbucks", "cuisine": "coffee_shop", "name": "Starbucks", "official_name": "Starbucks Coffee", "takeaway": "yes"}}, {"type": "node", "id": 283540423, "lat": 48.4360427, "lon": -123.3401346, "tags": {"amenity": "cafe", "name": "Koffi", "wheelchair": "yes"}}, {"type": "node", "id": 287209284, "lat": 48.4252795, "lon": -123.3571271, "tags": {"amenity": "cafe", "name": "Dolce Vita"}}, {"type": "node", "id": 287209434, "lat": 48.4255826, "lon": -123.359477, "tags": {"amenity": "cafe", "brand": "Starbucks", "brand:wikidata": "Q37158", "brand:wikipedia": "en:Starbucks", "cuisine": "coffee_shop", "internet_access": "wlan", "name": "Starbucks", "official_name": "Starbucks Coffee", "opening_hours": "Mo-Th 05:30-20:30; Fr 05:30-21:00; Sa 06:00-21:00; Su 06:30-20:00", "takeaway": "yes", "wheelchair": "yes"}}, {"type": "node", "id": 287210603, "lat": 48.4265629, "lon": -123.3660729, "tags": {"amenity": "cafe", "name": "Serious Coffee"}}, {"type": "node", "id": 287511583, "lat": 48.4601009, "lon": -123.3332019, "tags": {"addr:city": "Victoria", "addr:housenumber": "3690", "addr:postcode": "V8P 4H2", "addr:street": "Shelbourne Street", "amenity": "cafe", "cuisine": "coffee_shop", "name": "Urban Cup", "phone": "+1-250-477-7741"}}, {"type": "node", "id": 293313307, "lat": 48.4469709, "lon": -123.372356, "tags": {"addr:city": "Victoria", "addr:housenumber": "3180", "addr:postcode": "V8Z 3K5", "addr:province": "BC", "addr:street": "Douglas Street", "amenity": "cafe", "brand": "Starbucks", "brand:wikidata": "Q37158", "brand:wikipedia": "en:Starbucks", "cuisine": "coffee_shop", "drive_through": "yes", "name": "Starbucks", "official_name": "Starbucks Coffee", "opening_hours": "Mo-Fr 07:00-06:00; Sa 08:00-03:00; Su 09:00-04:00", "phone": "+1-250-360-0339", "takeaway": "yes", "website": "https://www.starbucks.ca/store-locator/store/496/3180-douglas-st-victoria-3180-douglas-st-victoria-bc-v-8-z-3-k-5-ca"}}, {"type": "node", "id": 393823717, "lat": 48.45142, "lon": -123.4630624}, {"type": "node", "id": 393823718, "lat": 48.4512939, "lon": -123.463145}, {"type": "node", "id": 393823719, "lat": 48.4512429, "lon": -123.4629162}, {"type": "node", "id": 393823720, "lat": 48.451344, "lon": -123.4628493}, {"type": "node", "id": 393933224, "lat": 48.4418356, "lon": -123.4704632, "tags": {"addr:city": "Colwood", "addr:housenumber": "1910", "addr:postcode": "V9B 1V7", "addr:street": "Sooke Road", "amenity": "cafe", "internet_access": "wlan", "name": "Pilgrim Coffee"}}, {"type": "node", "id": 393933237, "lat": 48.4427024, "lon": -123.4709366, "tags": {"amenity": "cafe", "name": "BiteZ Sandwich Bar"}}, {"type": "node", "id": 466988532, "lat": 48.4129438, "lon": -123.338856, "tags": {"amenity": "cafe", "brand": "Starbucks", "brand:wikidata": "Q37158", "brand:wikipedia": "en:Starbucks", "cuisine": "coffee_shop", "name": "Starbucks", "official_name": "Starbucks Coffee", "takeaway": "yes"}}, {"type": "node", "id": 466996295, "lat": 48.4142146, "lon": -123.3568584, "tags": {"amenity": "cafe", "internet_access": "wlan", "name": "Serious Coffee"}}, {"type": "node", "id": 466996304, "lat": 48.4146656, "lon": -123.3557009, "tags": {"addr:housenumber": "1109", "addr:street": "McKenzie Street", "amenity": "cafe", "name": "Caffe Fantastico", "wheelchair": "yes"}}, {"type": "node", "id": 467005058, "lat": 48.42669, "lon": -123.3135844, "tags": {"amenity": "cafe", "name": "Ottavio"}}, {"type": "node", "id": 477193638, "lat": 48.4153357, "lon": -123.3564368, "tags": {"amenity": "cafe", "brand": "Starbucks", "brand:wikidata": "Q37158", "brand:wikipedia": "en:Starbucks", "cuisine": "coffee_shop", "internet_access": "wlan", "name": "Starbucks", "official_name": "Starbucks Coffee", "takeaway": "yes"}}, {"type": "node", "id": 477203190, "lat": 48.4376968, "lon": -123.3077791, "tags": {"amenity": "cafe", "name": "Village Cafe"}}, {"type": "node", "id": 530690523, "lat": 48.4474386, "lon": -123.4274569, "tags": {"amenity": "cafe", "cuisine": "coffee_shop", "name": "Kinder Cup", "outdoor_seating": "yes"}}, {"type": "node", "id": 671797453, "lat": 48.4157104, "lon": -123.375088, "tags": {"amenity": "cafe", "brand": "Starbucks", "brand:wikidata": "Q37158", "brand:wikipedia": "en:Starbucks", "cuisine": "coffee_shop", "internet_access": "wlan", "name": "Starbucks", "official_name": "Starbucks Coffee", "takeaway": "yes", "wheelchair": "yes"}}, {"type": "node", "id": 671797458, "lat": 48.4151113, "lon": -123.3740838, "tags": {"addr:housenumber": "143", "addr:street": "Menzies Street", "amenity": "cafe", "name": "James Bay Coffee and Books"}}, {"type": "node", "id": 703609181, "lat": 48.4372156, "lon": -123.3660103, "tags": {"amenity": "cafe", "name": "2% Jazz"}}, {"type": "node", "id": 730149228, "lat": 48.4265558, "lon": -123.3236361, "tags": {"addr:housenumber": "1964", "addr:street": "Oak Bay Avenue", "amenity": "cafe", "internet_access": "wlan", "name": "Discovery Coffee"}}, {"type": "node", "id": 747486835, "lat": 48.4615579, "lon": -123.2970464, "tags": {"addr:housenumber": "3840", "addr:postcode": "V8N 4G2", "addr:street": "Cadboro Bay Road", "amenity": "cafe", "cuisine": "italian", "name": "Olive Olio's"}}, {"type": "node", "id": 760872291, "lat": 48.4662992, "lon": -123.309381, "tags": {"amenity": "cafe", "brand": "Starbucks", "brand:wikidata": "Q37158", "brand:wikipedia": "en:Starbucks", "cuisine": "coffee_shop", "name": "Starbucks", "official_name": "Starbucks Coffee", "opening_hours": "Mo-Fr 8:00-17:00", "takeaway": "yes", "wheelchair": "yes"}}, {"type": "node", "id": 1034255048, "lat": 48.52953, "lon": -123.373456, "tags": {"amenity": "cafe", "name": "Adriennes Tea Garden"}}, {"type": "node", "id": 1050335763, "lat": 48.4404465, "lon": -123.511219}, {"type": "node", "id": 1050335799, "lat": 48.4405514, "lon": -123.5111597}, {"type": "node", "id": 1050335925, "lat": 48.4403751, "lon": -123.5109321}, {"type": "node", "id": 1050336169, "lat": 48.44048, "lon": -123.5108728}, {"type": "node", "id": 1102836437, "lat": 48.4249335, "lon": -123.3644282}, {"type": "node", "id": 1102836469, "lat": 48.4246708, "lon": -123.3644907}, {"type": "node", "id": 1102836519, "lat": 48.4246814, "lon": -123.3645915}, {"type": "node", "id": 1102836623, "lat": 48.4248564, "lon": -123.3644466}, {"type": "node", "id": 1102836624, "lat": 48.4249441, "lon": -123.364529}, {"type": "node", "id": 1103648660, "lat": 48.4322293, "lon": -123.3783274, "tags": {"addr:unit": "102", "amenity": "cafe", "cuisine": "deli;breakfast", "internet_access": "wlan", "name": "Caffe Fantastico", "opening_hours": "Mo-Su 07:30-17:00", "phone": "+1-250-590-2315", "website": "https://caffefantastico.com/"}}, {"type": "node", "id": 1104333636, "lat": 48.4258658, "lon": -123.3641362}, {"type": "node", "id": 1104333671, "lat": 48.4258391, "lon": -123.3638879}, {"type": "node", "id": 1104333719, "lat": 48.4260422, "lon": -123.3638382}, {"type": "node", "id": 1104333730, "lat": 48.426069, "lon": -123.3640865}, {"type": "node", "id": 1414401351, "lat": 48.424042, "lon": -123.3623108}, {"type": "node", "id": 1414401352, "lat": 48.42405, "lon": -123.3623849}, {"type": "node", "id": 1414401360, "lat": 48.4241699, "lon": -123.3623555}, {"type": "node", "id": 1414401363, "lat": 48.4241851, "lon": -123.3622739}, {"type": "node", "id": 1414401364, "lat": 48.4241895, "lon": -123.3623151}, {"type": "node", "id": 1505723342, "lat": 48.4692097, "lon": -123.3627994, "tags": {"amenity": "cafe", "name": "Starbucks", "toilets:wheelchair": "yes", "wheelchair": "yes"}}, {"type": "node", "id": 1568549484, "lat": 48.4512602, "lon": -123.4630266}, {"type": "node", "id": 1568549493, "lat": 48.4512668, "lon": -123.4630008}, {"type": "node", "id": 1568549509, "lat": 48.4513192, "lon": -123.4631607}, {"type": "node", "id": 1568549512, "lat": 48.4513688, "lon": -123.4629362}, {"type": "node", "id": 1568549517, "lat": 48.4513853, "lon": -123.4629438}, {"type": "node", "id": 1568549521, "lat": 48.4514117, "lon": -123.4630988}, {"type": "node", "id": 1654838472, "lat": 48.4261774, "lon": -123.3617513, "tags": {"addr:housenumber": "808", "addr:postcode": "V8W 3S2", "addr:street": "Yates Street", "amenity": "cafe", "cuisine": "coffee_shop", "name": "Habit Coffee", "opening_hours": "Mo-Fr 07:00-22:00; Sa 08:00-22:00; Su 08:00-18:00", "phone": "+1-250-590-5953", "website": "https://habitcoffee.com/"}}, {"type": "node", "id": 1657150044, "lat": 48.4299213, "lon": -123.411075, "tags": {"amenity": "cafe", "name": "Serious Coffee"}}, {"type": "node", "id": 1665875631, "lat": 48.437365, "lon": -123.3588256, "tags": {"addr:housenumber": "975", "addr:postcode": "V8T 1W7", "addr:street": "Kings Road", "amenity": "cafe", "name": "Caff\u00e8 Fantastico", "opening_hours": "Mo-Sa 07:00-19:00; Su 07:00-17:00", "phone": "+1-250-385-2326", "website": "https://caffefantastico.com/", "wheelchair": "limited"}}, {"type": "node", "id": 1707893344, "lat": 48.6870317, "lon": -123.4097364, "tags": {"amenity": "cafe", "indoor": "yes", "level": "1", "name": "Lands End Caf\u00e9"}}, {"type": "node", "id": 1742441937, "lat": 48.4493345, "lon": -123.5029524}, {"type": "node", "id": 1742441944, "lat": 48.4493856, "lon": -123.503156}, {"type": "node", "id": 1742441951, "lat": 48.4494514, "lon": -123.5031185}, {"type": "node", "id": 1742441954, "lat": 48.4494601, "lon": -123.5031255}, {"type": "node", "id": 1742441956, "lat": 48.4494908, "lon": -123.5028633}, {"type": "node", "id": 1742441958, "lat": 48.4495079, "lon": -123.5029314}, {"type": "node", "id": 1742441959, "lat": 48.4495193, "lon": -123.5029355}, {"type": "node", "id": 1742441962, "lat": 48.4495547, "lon": -123.5030723}, {"type": "node", "id": 1823560813, "lat": 48.4303466, "lon": -123.3526763, "tags": {"addr:city": "Victoria", "addr:housenumber": "1105", "addr:postcode": "V8T 1E9", "addr:street": "Caledonia Avenue", "amenity": "cafe", "cuisine": "coffee_shop", "name": "The Parsonage Cafe", "opening_hours": "Mo-Su 07:00-18:00", "outdoor_seating": "yes", "smoking": "no", "website": "https://fernwoodcoffee.com"}}, {"type": "node", "id": 1823562533, "lat": 48.4295438, "lon": -123.3635151, "tags": {"amenity": "cafe", "name": "2% Jazz"}}, {"type": "node", "id": 1823562865, "lat": 48.4487871, "lon": -123.3615525, "tags": {"amenity": "cafe", "name": "Italian Bakery"}}, {"type": "node", "id": 1924354862, "lat": 48.4154054, "lon": -123.3694, "tags": {"amenity": "cafe", "name": "Colonial Cafe"}}, {"type": "node", "id": 1985327486, "lat": 48.4408598, "lon": -123.3759556, "tags": {"amenity": "cafe", "cuisine": "coffee_shop"}}, {"type": "node", "id": 1985327767, "lat": 48.441116, "lon": -123.3737052, "tags": {"amenity": "cafe", "brand": "Tim Hortons", "brand:wikidata": "Q175106", "brand:wikipedia": "en:Tim Hortons", "cuisine": "coffee_shop", "name": "Tim Hortons", "takeaway": "yes"}}, {"type": "node", "id": 2148443002, "lat": 48.4257743, "lon": -123.364774, "tags": {"addr:city": "Victoria", "addr:housenumber": "1213", "addr:province": "BC", "addr:street": "Douglas Street", "amenity": "cafe", "internet_access": "wlan", "name": "Cat's Coffee & Cake"}}, {"type": "node", "id": 2148443007, "lat": 48.4254759, "lon": -123.3638392, "tags": {"amenity": "cafe", "cuisine": "soup", "name": "Soupa Cafe"}}, {"type": "node", "id": 2270929649, "lat": 48.4456267, "lon": -123.3356224, "tags": {"addr:city": "Victoria", "addr:country": "CA", "addr:housenumber": "1644", "addr:postcode": "V8T 2C5", "addr:province": "BC", "addr:street": "Hillside Avenue", "addr:unit": "201", "amenity": "cafe", "brand": "Tim Hortons", "brand:wikidata": "Q175106", "brand:wikipedia": "en:Tim Hortons", "cuisine": "coffee_shop", "name": "Tim Hortons", "takeaway": "yes"}}, {"type": "node", "id": 2312455162, "lat": 48.4635498, "lon": -123.3099072, "tags": {"amenity": "cafe", "cuisine": "coffee_shop", "name": "BiblioCafe", "wifi": "no"}}, {"type": "node", "id": 2324473800, "lat": 48.4489748, "lon": -123.4988335}, {"type": "node", "id": 2324473803, "lat": 48.4490456, "lon": -123.4987712}, {"type": "node", "id": 2324473804, "lat": 48.4490757, "lon": -123.4990939}, {"type": "node", "id": 2324473810, "lat": 48.4491465, "lon": -123.4990316}, {"type": "node", "id": 2582011054, "lat": 48.4166207, "lon": -123.3729051}, {"type": "node", "id": 2582011055, "lat": 48.4167799, "lon": -123.3728178}, {"type": "node", "id": 2582011056, "lat": 48.4167901, "lon": -123.3727056}, {"type": "node", "id": 2582011058, "lat": 48.4166143, "lon": -123.3728786}, {"type": "node", "id": 2625143801, "lat": 48.4541167, "lon": -123.3746, "tags": {"addr:housenumber": "3450", "addr:province": "BC", "addr:street": "Saanich Road", "addr:unit": "109", "amenity": "cafe", "name": "Good Earth Coffeehouse", "wheelchair": "yes"}}, {"type": "node", "id": 2643026602, "lat": 48.4245863, "lon": -123.3020084, "tags": {"amenity": "cafe", "name": "Oak Bay Marina Coffee House"}}, {"type": "node", "id": 2644261623, "lat": 48.420251, "lon": -123.2998142, "tags": {"amenity": "cafe"}}, {"type": "node", "id": 2644272045, "lat": 48.4163001, "lon": -123.311473, "tags": {"amenity": "cafe"}}, {"type": "node", "id": 2690722109, "lat": 48.4571418, "lon": -123.540064, "tags": {"amenity": "cafe", "brand": "Tim Hortons", "brand:wikidata": "Q175106", "brand:wikipedia": "en:Tim Hortons", "cuisine": "coffee_shop", "drive_through": "yes", "name": "Tim Hortons", "takeaway": "yes"}}, {"type": "node", "id": 2698916817, "lat": 48.4573451, "lon": -123.376006, "tags": {"amenity": "cafe", "brand": "Tim Hortons", "brand:wikidata": "Q175106", "brand:wikipedia": "en:Tim Hortons", "cuisine": "coffee_shop", "name": "Tim Hortons", "takeaway": "yes"}}, {"type": "node", "id": 2726252125, "lat": 48.429248, "lon": -123.3684068, "tags": {"addr:city": "Victoria", "addr:housenumber": "533", "addr:postcode": "V8W 1R3", "addr:street": "Fisgard Street", "amenity": "cafe", "internet_access": "no", "name": "Bean Around The World", "wheelchair": "no"}}, {"type": "node", "id": 2728217606, "lat": 48.4485527, "lon": -123.3722238, "tags": {"amenity": "cafe", "brand": "Tim Hortons", "brand:wikidata": "Q175106", "brand:wikipedia": "en:Tim Hortons", "cuisine": "coffee_shop", "name": "Tim Hortons", "takeaway": "yes"}}, {"type": "node", "id": 2865564202, "lat": 48.4153163, "lon": -123.3558736, "tags": {"amenity": "cafe", "internet_access": "wlan", "name": "Moka House"}}, {"type": "node", "id": 2901507001, "lat": 48.4691067, "lon": -123.3303778, "tags": {"addr:city": "Victoria", "addr:housenumber": "1646", "addr:postcode": "V8N 1A7", "addr:street": "McKenzie Avenue", "amenity": "cafe", "cuisine": "coffee_shop", "internet_access": "wlan", "name": "Starbucks"}}, {"type": "node", "id": 2901519620, "lat": 48.4721401, "lon": -123.3330681}, {"type": "node", "id": 2901519621, "lat": 48.4718925, "lon": -123.3330726}, {"type": "node", "id": 2901519622, "lat": 48.4718911, "lon": -123.3329084}, {"type": "node", "id": 2901519623, "lat": 48.4721387, "lon": -123.3329039}, {"type": "node", "id": 2986122457, "lat": 48.4547245, "lon": -123.395649, "tags": {"amenity": "cafe", "cuisine": "coffee_shop", "internet_access": "wlan", "level": "0", "name": "Starbucks"}}, {"type": "node", "id": 3276210955, "lat": 48.4422955, "lon": -123.511006, "tags": {"amenity": "cafe", "brand": "Starbucks", "brand:wikidata": "Q37158", "brand:wikipedia": "en:Starbucks", "cuisine": "coffee_shop", "name": "Starbucks", "official_name": "Starbucks Coffee", "takeaway": "yes"}}, {"type": "node", "id": 3317905682, "lat": 48.4320397, "lon": -123.3649647, "tags": {"addr:city": "Victoria", "addr:housenumber": "664", "addr:province": "BC", "addr:street": "Discovery Street", "amenity": "cafe", "cuisine": "coffee_shop", "name": "Discovery Coffee"}}, {"type": "node", "id": 3438282372, "lat": 48.4253199, "lon": -123.3679835, "tags": {"addr:housenumber": "1110", "addr:street": "Government Street", "amenity": "cafe", "cuisine": "tea;coffee_shop", "name": "Murchie's", "opening_hours": "Mo-Sa 07:30-18:00; Su 08:00-18:00", "phone": "+1-250-381-5451", "shop": "beverages", "source": "Bing"}}, {"type": "node", "id": 3708873703, "lat": 48.4937905, "lon": -123.4115405, "tags": {"amenity": "cafe", "description": "on lower level, and open to the public, however as this is a secured building public must enter the building via the main entrance 2nd level - large parking lot side", "internet_access": "wlan", "internet_access:fee": "no", "name": "Hard Drive Cafe", "opening_hours": "Mo-Fr 07:30-16:00"}}, {"type": "node", "id": 4006688812, "lat": 48.4674114, "lon": -123.4276202, "tags": {"addr:unit": "150", "amenity": "cafe", "name": "Tim Hortons", "wheelchair": "yes"}}, {"type": "node", "id": 4048405219, "lat": 48.5648003, "lon": -123.4672098, "tags": {"amenity": "cafe", "name": "Coffee Shop", "wheelchair": "yes"}}, {"type": "node", "id": 4069874853, "lat": 48.4266574, "lon": -123.3672065, "tags": {"addr:housenumber": "1031", "addr:street": "Government Street", "amenity": "cafe", "brand": "Starbucks", "brand:wikidata": "Q37158", "brand:wikipedia": "en:Starbucks", "cuisine": "coffee_shop", "internet_access": "wlan", "name": "Starbucks", "official_name": "Starbucks Coffee", "operator": "starbucks", "takeaway": "yes"}}, {"type": "node", "id": 4069994090, "lat": 48.3777286, "lon": -123.7220705, "tags": {"amenity": "cafe", "cuisine": "coffee", "name": "Serious Coffee"}}, {"type": "node", "id": 4071028771, "lat": 48.4292284, "lon": -123.366605, "tags": {"addr:housenumber": "1689", "addr:street": "Government Street", "amenity": "cafe", "brand": "Starbucks", "brand:wikidata": "Q37158", "brand:wikipedia": "en:Starbucks", "cuisine": "coffee_shop", "name": "Starbucks", "official_name": "Starbucks Coffee", "takeaway": "yes"}}, {"type": "node", "id": 4074241333, "lat": 48.4326146, "lon": -123.38109, "tags": {"amenity": "cafe", "brand": "Starbucks", "brand:wikidata": "Q37158", "brand:wikipedia": "en:Starbucks", "cuisine": "coffee_shop", "internet_access": "yes", "name": "Starbucks", "official_name": "Starbucks Coffee", "takeaway": "yes"}}, {"type": "node", "id": 4074878540, "lat": 48.4444924, "lon": -123.3701554, "tags": {"addr:housenumber": "3075", "addr:street": "Douglas Street", "amenity": "cafe", "cuisine": "coffee_shop", "internet_access": "yes", "name": "Java Jo's", "smoking": "no"}}, {"type": "node", "id": 4166777048, "lat": 48.4684, "lon": -123.4280142, "tags": {"addr:unit": "110", "amenity": "cafe", "name": "Starbucks"}}, {"type": "node", "id": 4306977400, "lat": 48.6488044, "lon": -123.3996588, "tags": {"addr:housenumber": "2417", "addr:postcode": "V8L 1X5", "addr:street": "Beacon Avenue", "amenity": "cafe", "name": "Serious Coffee"}}, {"type": "node", "id": 4308208883, "lat": 48.6490611, "lon": -123.3976763, "tags": {"amenity": "cafe", "name": "3rd Street Cafe"}}, {"type": "node", "id": 4308231098, "lat": 48.6487978, "lon": -123.3964187, "tags": {"amenity": "cafe", "name": "Beacon Cafe"}}, {"type": "node", "id": 4308231104, "lat": 48.6487976, "lon": -123.3960237, "tags": {"amenity": "cafe", "name": "Quince Cafe & Ice Cream"}}, {"type": "node", "id": 4308248000, "lat": 48.6487874, "lon": -123.3976674, "tags": {"amenity": "cafe", "brand": "Starbucks", "brand:wikidata": "Q37158", "brand:wikipedia": "en:Starbucks", "cuisine": "coffee_shop", "internet_access": "wlan", "name": "Starbucks", "official_name": "Starbucks Coffee", "takeaway": "yes"}}, {"type": "node", "id": 4308255477, "lat": 48.6487751, "lon": -123.3995572, "tags": {"amenity": "cafe", "name": "The Red Brick Cafe"}}, {"type": "node", "id": 4308257278, "lat": 48.6478032, "lon": -123.400127, "tags": {"amenity": "cafe", "name": "Toast Cafe"}}, {"type": "node", "id": 4308297301, "lat": 48.6486552, "lon": -123.4008518, "tags": {"amenity": "cafe", "name": "Alexander's Coffee"}}, {"type": "node", "id": 4308297310, "lat": 48.6481904, "lon": -123.4020289, "tags": {"amenity": "cafe", "brand": "Starbucks", "brand:wikidata": "Q37158", "brand:wikipedia": "en:Starbucks", "cuisine": "coffee_shop", "name": "Starbucks", "official_name": "Starbucks Coffee", "takeaway": "yes"}}, {"type": "node", "id": 4308297312, "lat": 48.6482343, "lon": -123.4027763, "tags": {"amenity": "cafe", "brand": "Tim Hortons", "brand:wikidata": "Q175106", "brand:wikipedia": "en:Tim Hortons", "cuisine": "coffee_shop", "name": "Tim Hortons", "takeaway": "yes"}}, {"type": "node", "id": 4308297702, "lat": 48.6480696, "lon": -123.4010783, "tags": {"amenity": "cafe", "name": "Bevan Bistro"}}, {"type": "node", "id": 4340405558, "lat": 48.4591059, "lon": -123.4980814}, {"type": "node", "id": 4340405563, "lat": 48.4591466, "lon": -123.4978858}, {"type": "node", "id": 4340405569, "lat": 48.4592187, "lon": -123.4981348}, {"type": "node", "id": 4340405571, "lat": 48.4592391, "lon": -123.4978547}, {"type": "node", "id": 4340405580, "lat": 48.4592737, "lon": -123.4978711}, {"type": "node", "id": 4340500915, "lat": 48.459651, "lon": -123.4979032}, {"type": "node", "id": 4340500918, "lat": 48.4596842, "lon": -123.4977441}, {"type": "node", "id": 4340500926, "lat": 48.4597336, "lon": -123.4979569}, {"type": "node", "id": 4340500927, "lat": 48.4597364, "lon": -123.4979437}, {"type": "node", "id": 4340500930, "lat": 48.4597579, "lon": -123.4979318}, {"type": "node", "id": 4340500931, "lat": 48.4597509, "lon": -123.4979651}, {"type": "node", "id": 4340500935, "lat": 48.4597661, "lon": -123.4979357}, {"type": "node", "id": 4340500937, "lat": 48.4597869, "lon": -123.4977928}, {"type": "node", "id": 4340500938, "lat": 48.4597863, "lon": -123.4978392}, {"type": "node", "id": 4340500939, "lat": 48.459778, "lon": -123.4978353}, {"type": "node", "id": 4483270768, "lat": 48.4306138, "lon": -123.3673103, "tags": {"addr:housenumber": "1812", "addr:street": "Government Street", "amenity": "cafe", "cuisine": "coffee_shop", "name": "Cascadia"}}, {"type": "node", "id": 4490972793, "lat": 48.4615793, "lon": -123.3318797, "tags": {"amenity": "cafe", "cuisine": "vietnamese", "name": "Phonomenal", "name:en": "Phonomenal"}}, {"type": "node", "id": 4490972794, "lat": 48.46194, "lon": -123.33187, "tags": {"amenity": "cafe", "name": "Noodle Box", "name:en": "Noodle Box"}}, {"type": "node", "id": 4613186269, "lat": 48.452729, "lon": -123.3652902, "tags": {"addr:unit": "109", "amenity": "cafe", "name": "Roundhouse Cafe"}}, {"type": "node", "id": 4681148890, "lat": 48.4272638, "lon": -123.361995, "tags": {"amenity": "cafe", "brand": "Tim Hortons", "brand:wikidata": "Q175106", "brand:wikipedia": "en:Tim Hortons", "cuisine": "coffee_shop", "internet_access": "wlan", "name": "Tim Hortons", "takeaway": "yes"}}, {"type": "node", "id": 4681149291, "lat": 48.4249682, "lon": -123.3666426, "tags": {"amenity": "cafe", "brand": "Starbucks", "brand:wikidata": "Q37158", "brand:wikipedia": "en:Starbucks", "cuisine": "coffee_shop", "name": "Starbucks", "name:en": "Starbucks", "official_name": "Starbucks Coffee", "takeaway": "yes"}}, {"type": "node", "id": 4683969189, "lat": 48.427073, "lon": -123.362134, "tags": {"addr:city": "Victoria", "addr:housenumber": "780", "addr:province": "BC", "addr:street": "Johnson Street", "amenity": "cafe", "name": "Macchiato Caffe", "opening_hours": "Mo-Fr 08:00-15:00", "phone": "+1-250-590-5985"}}, {"type": "node", "id": 4751971321, "lat": 48.4242037, "lon": -123.3666947, "tags": {"addr:city": "Victoria", "addr:housenumber": "1002", "addr:province": "BC", "addr:street": "Broad Street", "amenity": "cafe", "name": "Macchiato Caffe"}}, {"type": "node", "id": 4775888875, "lat": 48.4241533, "lon": -123.3620757, "tags": {"amenity": "cafe", "name": "Chorizo & co", "name:en": "Chorizo & co"}}, {"type": "node", "id": 4775889057, "lat": 48.4242216, "lon": -123.3627631, "tags": {"amenity": "cafe", "name": "Aegean cafe", "name:en": "Aegean cafe"}}, {"type": "node", "id": 4789078921, "lat": 48.4233994, "lon": -123.3680717, "tags": {"amenity": "cafe", "name": "Pour.", "name:en": "Pour."}}, {"type": "node", "id": 4789235822, "lat": 48.4268195, "lon": -123.3621537, "tags": {"addr:housenumber": "1320", "addr:street": "Blanshard Street", "amenity": "cafe", "name": "Shine Cafe", "name:en": "Shine Cafe", "wheelchair": "no"}}, {"type": "node", "id": 4797842518, "lat": 48.4389543, "lon": -123.3654203, "tags": {"addr:city": "Victoria", "addr:housenumber": "740", "addr:postcode": "V8T 1Z4", "addr:street": "Hillside Avenue", "amenity": "cafe", "cuisine": "coffee_shop", "internet_access": "wlan", "internet_access:fee": "no", "name": "2% Jazz", "opening_hours": "Mo-Fr 07:00-15:30; Sa, Su 08:00-14:30", "phone": "+1 250 384 5282", "smoking": "no", "website": "https://2percentjazz.com"}}, {"type": "node", "id": 4799876624, "lat": 48.4239584, "lon": -123.3653024, "tags": {"amenity": "cafe", "internet_access": "wlan", "name": "Blendz coffee", "name:en": "Blendz coffee"}}, {"type": "node", "id": 4879614582, "lat": 48.496952, "lon": -123.3819992, "tags": {"addr:unit": "350", "amenity": "cafe", "name": "Artisan Bistro", "outdoor_seating": "yes"}}, {"type": "node", "id": 4987614627, "lat": 48.4268473, "lon": -123.3650316, "tags": {"amenity": "cafe", "name": "Fit Fix Caf\u00e9"}}, {"type": "node", "id": 5025395638, "lat": 48.4300922, "lon": -123.3683552, "tags": {"amenity": "cafe", "cuisine": "sandwich", "name": "Union Pacific Coffee", "opening_hours": "Mo-Fr 07:00-17:00; Sa 08:00-17:00; Su 09:00-16:00", "outdoor_seating": "yes", "phone": "+1-250-380-0005", "takeaway": "yes", "website": "http://www.unionpacificcoffee.ca/", "wheelchair": "yes"}}, {"type": "node", "id": 5033262227, "lat": 48.4286343, "lon": -123.3681818, "tags": {"addr:housenumber": "544", "addr:postcode": "V8W 1N6", "addr:street": "Pandora Avenue", "amenity": "cafe", "email": "info@justmatcha.com", "name": "Just Matcha", "name:en": "Just Matcha", "opening_hours": "Mo-Sa 10:00-18:00; Su 12:00-17:00", "phone": "+1-250-813-2456", "website": "https://justmatcha.com/"}}, {"type": "node", "id": 5033332823, "lat": 48.4295028, "lon": -123.366712, "tags": {"addr:housenumber": "1701", "addr:street": "Government Street", "amenity": "cafe", "cuisine": "breakfast;cake;coffee_shop;pancake;sandwich", "internet_access": "wlan", "name": "QV Cafe", "name:en": "QV Cafe & Bakery", "opening_hours": "Mo-Su 08:30-21:00", "phone": "+1-250-384-8831", "website": "https://www.qvcafe.ca/"}}, {"type": "node", "id": 5212576766, "lat": 48.4666655, "lon": -123.4331605, "tags": {"amenity": "cafe", "name": "Tim Hortons", "wheelchair": "yes"}}, {"type": "node", "id": 5212601870, "lat": 48.4582466, "lon": -123.378884, "tags": {"amenity": "cafe", "brand": "Tim Hortons", "brand:wikidata": "Q175106", "brand:wikipedia": "en:Tim Hortons", "cuisine": "coffee_shop", "name": "Tim Hortons", "takeaway": "yes"}}, {"type": "node", "id": 5212601871, "lat": 48.4473429, "lon": -123.3690037, "tags": {"amenity": "cafe", "brand": "Tim Hortons", "brand:wikidata": "Q175106", "brand:wikipedia": "en:Tim Hortons", "cuisine": "coffee_shop", "name": "Tim Hortons", "takeaway": "yes"}}, {"type": "node", "id": 5212601872, "lat": 48.442646, "lon": -123.369843, "tags": {"amenity": "cafe", "brand": "Tim Hortons", "brand:wikidata": "Q175106", "brand:wikipedia": "en:Tim Hortons", "cuisine": "coffee_shop", "drive_through": "yes", "name": "Tim Hortons", "takeaway": "yes"}}, {"type": "node", "id": 5212601873, "lat": 48.4381978, "lon": -123.364138, "tags": {"amenity": "cafe", "brand": "Tim Hortons", "brand:wikidata": "Q175106", "brand:wikipedia": "en:Tim Hortons", "cuisine": "coffee_shop", "name": "Tim Hortons", "takeaway": "yes"}}, {"type": "node", "id": 5212620391, "lat": 48.4704999, "lon": -123.3643242, "tags": {"amenity": "cafe", "name": "Tim Hortons"}}, {"type": "node", "id": 5212620392, "lat": 48.4694436, "lon": -123.3610637, "tags": {"amenity": "cafe", "name": "Tim Hortons"}}, {"type": "node", "id": 5212620393, "lat": 48.4690194, "lon": -123.3333249, "tags": {"amenity": "cafe", "name": "Tim Hortons"}}, {"type": "node", "id": 5212620394, "lat": 48.4461757, "lon": -123.332596, "tags": {"amenity": "cafe", "brand": "Tim Hortons", "brand:wikidata": "Q175106", "brand:wikipedia": "en:Tim Hortons", "cuisine": "coffee_shop", "name": "Tim Hortons", "takeaway": "yes"}}, {"type": "node", "id": 5212620395, "lat": 48.4332914, "lon": -123.327555, "tags": {"amenity": "cafe", "brand": "Tim Hortons", "brand:wikidata": "Q175106", "brand:wikipedia": "en:Tim Hortons", "cuisine": "coffee_shop", "name": "Tim Hortons", "takeaway": "yes"}}, {"type": "node", "id": 5212620396, "lat": 48.4309981, "lon": -123.323964, "tags": {"amenity": "cafe", "brand": "Tim Hortons", "brand:wikidata": "Q175106", "brand:wikipedia": "en:Tim Hortons", "cuisine": "coffee_shop", "name": "Tim Hortons", "takeaway": "yes"}}, {"type": "node", "id": 5212633841, "lat": 48.6405412, "lon": -123.429953, "tags": {"amenity": "cafe", "brand": "Tim Hortons", "brand:wikidata": "Q175106", "cuisine": "coffee_shop", "name": "Tim Hortons", "takeaway": "yes"}}, {"type": "node", "id": 5212633842, "lat": 48.5937318, "lon": -123.397034, "tags": {"addr:housenumber": "2471", "addr:street": "Mount Newton Cross Road", "amenity": "cafe", "brand": "Tim Hortons", "brand:wikidata": "Q175106", "brand:wikipedia": "en:Tim Hortons", "cuisine": "coffee_shop", "name": "Tim Hortons", "takeaway": "yes"}}, {"type": "node", "id": 5212633843, "lat": 48.4917552, "lon": -123.3877569, "tags": {"amenity": "cafe", "brand": "Tim Hortons", "brand:wikidata": "Q175106", "brand:wikipedia": "en:Tim Hortons", "cuisine": "coffee_shop", "name": "Tim Hortons", "takeaway": "yes"}}, {"type": "node", "id": 5296238921, "lat": 48.4210217, "lon": -123.371103, "tags": {"addr:city": "Victoria", "addr:housenumber": "470", "addr:postcode": "V8V 1W9", "addr:street": "Belleville Street", "amenity": "cafe", "brand": "Starbucks", "brand:wikidata": "Q37158", "brand:wikipedia": "en:Starbucks", "cuisine": "coffee_shop", "internet_access": "wlan", "name": "Starbucks", "official_name": "Starbucks Coffee", "takeaway": "yes"}}, {"type": "node", "id": 5521322625, "lat": 48.4646824, "lon": -123.447, "tags": {"amenity": "cafe", "internet_access": "wlan", "name": "Nest Cafe"}}, {"type": "node", "id": 5577664280, "lat": 48.4395707, "lon": -123.359042, "tags": {"addr:housenumber": "1002", "addr:street": "Hillside Avenue", "amenity": "cafe", "name": "Gigi's Cafe"}}, {"type": "node", "id": 5744884588, "lat": 48.4388163, "lon": -123.3592125, "tags": {"addr:city": "Victoria", "addr:housenumber": "2646", "addr:province": "BC", "addr:street": "Quadra Street", "amenity": "cafe", "name": "Caribbean Village Cafe", "phone": "+1-250-381-3363", "website": "carribeanvillagecafe.com"}}, {"type": "node", "id": 5809829994, "lat": 48.4550718, "lon": -123.3754778, "tags": {"amenity": "cafe", "brand": "Starbucks", "brand:wikidata": "Q37158", "brand:wikipedia": "en:Starbucks", "cuisine": "coffee_shop", "internet_access": "wlan", "internet_access:fee": "no", "name": "Starbucks", "official_name": "Starbucks Coffee", "opening_hours": "06:00-22:00; Fr 06:00-22:30", "operator": "Starbucks", "outdoor_seating": "no", "smoking": "no", "takeaway": "yes"}}, {"type": "node", "id": 5828012286, "lat": 48.4603999, "lon": -123.3319723, "tags": {"amenity": "cafe", "name": "Starbucks"}}, {"type": "node", "id": 5921737685, "lat": 48.4283808, "lon": -123.3684216, "tags": {"addr:housenumber": "529", "addr:street": "Pandora Avenue", "amenity": "cafe", "cuisine": "breakfast;coffee_shop", "internet_access": "wlan", "name": "Shanzee's Biscuit Caf\u00e9", "name:en": "Shanzee's Biscuit Cafe", "opening_hours": "Mo-Su 08:00-15:00", "phone": "+1-778-433-9089", "website": "http://www.shanzeesbiscuit.ca"}}, {"type": "node", "id": 6028006581, "lat": 48.4627567, "lon": -123.3134142, "tags": {"amenity": "cafe", "name": "Mac's", "note": "Not affiliated with Mac's convenience stores Canada."}}, {"type": "node", "id": 6228253691, "lat": 48.4160059, "lon": -123.3741713, "tags": {"addr:city": "Victoria", "addr:housenumber": "230", "addr:postcode": "V8V 2G7", "addr:street": "Menzies Street", "addr:unit": "1", "amenity": "restaurant", "capacity": "50", "cuisine": "coffee_shop", "name": "Cup of Joe", "opening_hours": "Mo-Su 08:00-15:00", "outdoor_seating": "no", "phone": "+1-250-380-2563", "smoking": "no", "website": "https://cupofjoevictoria.com/"}}, {"type": "node", "id": 6268965104, "lat": 48.4216174, "lon": -123.3678599, "tags": {"alt_name": "Lobby Lounge", "amenity": "cafe", "cuisine": "tea", "indoor": "yes", "level": "1", "name": "Tea at the Empress", "start_date": "1908-01-25", "tourism": "attraction", "website": "https://www.teaattheempress.com"}}, {"type": "node", "id": 6268965123, "lat": 48.4212455, "lon": -123.3664586, "tags": {"amenity": "cafe", "level": "0", "name": "Liberty Cafe + Deli", "shop": "deli"}}, {"type": "node", "id": 6273358612, "lat": 48.4207692, "lon": -123.3660286, "tags": {"amenity": "cafe", "name": "Capital City Caf\u00e9"}}, {"type": "node", "id": 6279624102, "lat": 48.429535, "lon": -123.329836, "tags": {"amenity": "cafe", "name": "Chi Cha Teahouse"}}, {"type": "node", "id": 6395033948, "lat": 48.4310251, "lon": -123.4000306}, {"type": "node", "id": 6395033949, "lat": 48.4310486, "lon": -123.4000791}, {"type": "node", "id": 6395033950, "lat": 48.4310792, "lon": -123.3999268}, {"type": "node", "id": 6395033951, "lat": 48.431027, "lon": -123.4000538}, {"type": "node", "id": 6395033952, "lat": 48.4312371, "lon": -123.4000914}, {"type": "node", "id": 6395033953, "lat": 48.4310661, "lon": -123.4001258}, {"type": "node", "id": 6395033954, "lat": 48.4311696, "lon": -123.4002213}, {"type": "node", "id": 6395033955, "lat": 48.4310402, "lon": -123.4000954}, {"type": "node", "id": 6395033956, "lat": 48.4311505, "lon": -123.3999635}, {"type": "node", "id": 6395033957, "lat": 48.4311246, "lon": -123.3999331}, {"type": "node", "id": 6395033958, "lat": 48.4310745, "lon": -123.4001096}, {"type": "node", "id": 6395033959, "lat": 48.4310946, "lon": -123.3999239}, {"type": "node", "id": 6395033960, "lat": 48.4311421, "lon": -123.3999798}, {"type": "node", "id": 6395033961, "lat": 48.4311162, "lon": -123.3999493}, {"type": "node", "id": 6556449285, "lat": 48.4216675, "lon": -123.376769, "tags": {"amenity": "cafe", "name": "Nourish Kitchen & Cafe"}}, {"type": "node", "id": 6556449386, "lat": 48.4236293, "lon": -123.3587966, "tags": {"amenity": "cafe", "name": "Blue Fox Cafe"}}, {"type": "node", "id": 6556449489, "lat": 48.3776122, "lon": -123.7246277, "tags": {"amenity": "cafe", "name": "The Stick in the Mud"}}, {"type": "node", "id": 6632723954, "lat": 48.5754687, "lon": -123.4434986, "tags": {"addr:unit": "12", "amenity": "cafe", "name": "Brentwood Bay Village Empourium Caf\u00e9 & Gift Shop", "opening_hours": "Mo-Th,Sa 07:00-17:00; Fr 07:00-21:00; Su 09:00-16:00", "phone": "+1-778-351-0178", "website": "https://empourium.ca/"}}, {"type": "node", "id": 6651889241, "lat": 48.4612045, "lon": -123.4961936, "tags": {"amenity": "cafe", "cuisine": "coffee_shop", "name": "Serious Coffee"}}, {"type": "node", "id": 6721912831, "lat": 48.4385941, "lon": -123.5123061}, {"type": "node", "id": 6721912832, "lat": 48.4385529, "lon": -123.5121411}, {"type": "node", "id": 6721912833, "lat": 48.4386846, "lon": -123.5120663}, {"type": "node", "id": 6721912834, "lat": 48.4387258, "lon": -123.5122313}, {"type": "node", "id": 6760847287, "lat": 48.4236312, "lon": -123.3624292, "tags": {"addr:housenumber": "1001", "addr:street": "Blanshard Street", "amenity": "cafe", "cuisine": "coffee_shop", "name": "Discovery Coffee", "website": "https://discoverycoffee.com"}}, {"type": "node", "id": 6770998071, "lat": 48.4968244, "lon": -123.3804388}, {"type": "node", "id": 6770998072, "lat": 48.4968952, "lon": -123.3803975}, {"type": "node", "id": 6770998073, "lat": 48.4969367, "lon": -123.3805594}, {"type": "node", "id": 6770998074, "lat": 48.4969164, "lon": -123.380629}, {"type": "node", "id": 6770998075, "lat": 48.4968837, "lon": -123.380648}, {"type": "node", "id": 6770998076, "lat": 48.4968501, "lon": -123.3807629}, {"type": "node", "id": 6770998077, "lat": 48.4968597, "lon": -123.3807693}, {"type": "node", "id": 6770998078, "lat": 48.4967244, "lon": -123.3807803}, {"type": "node", "id": 6770998079, "lat": 48.4967337, "lon": -123.3807865}, {"type": "node", "id": 6770998080, "lat": 48.4967009, "lon": -123.3808983}, {"type": "node", "id": 6770998081, "lat": 48.4968021, "lon": -123.3809658}, {"type": "node", "id": 6773596236, "lat": 48.4298662, "lon": -123.4129866, "tags": {"addr:city": "Esquimalt", "addr:housenumber": "1207B", "addr:postcode": "V9A 3P1", "addr:street": "Esquimalt Road", "amenity": "cafe", "name": "Esquimalt Roasting Company"}}, {"type": "node", "id": 6829012537, "lat": 48.430385, "lon": -123.3450206, "tags": {"addr:city": "Victoria", "addr:housenumber": "1301", "addr:postcode": "V8R 1R9", "addr:street": "Gladstone Avenue", "amenity": "cafe", "cuisine": "coffee_shop", "internet_access": "no", "name": "Little June", "opening_hours": "Mo-Su 07:00-05:00", "outdoor_seating": "yes", "website": "https://www.littlejune.ca/"}}, {"type": "node", "id": 7087621680, "lat": 48.4294333, "lon": -123.3525098, "tags": {"amenity": "cafe", "name": "Fern Cafe and Bakery"}}, {"type": "node", "id": 7095031006, "lat": 48.482725, "lon": -123.3215143}, {"type": "node", "id": 7095031064, "lat": 48.4825761, "lon": -123.3213308}, {"type": "node", "id": 7095031211, "lat": 48.4827031, "lon": -123.3214926}, {"type": "node", "id": 7095031276, "lat": 48.4825592, "lon": -123.3214936}, {"type": "node", "id": 7095031498, "lat": 48.4826981, "lon": -123.321531}, {"type": "node", "id": 7095031556, "lat": 48.4826009, "lon": -123.321421}, {"type": "node", "id": 7095031701, "lat": 48.4827539, "lon": -123.3214611}, {"type": "node", "id": 7095031763, "lat": 48.4826165, "lon": -123.321702}, {"type": "node", "id": 7095031968, "lat": 48.4826833, "lon": -123.3214771}, {"type": "node", "id": 7095032022, "lat": 48.4825954, "lon": -123.3214244}, {"type": "node", "id": 7095032239, "lat": 48.4827532, "lon": -123.321617}, {"type": "node", "id": 7095032461, "lat": 48.4826966, "lon": -123.3214688}, {"type": "node", "id": 7095032730, "lat": 48.4826975, "lon": -123.3212554}, {"type": "node", "id": 7095032950, "lat": 48.4826063, "lon": -123.3214643}, {"type": "node", "id": 7100415635, "lat": 48.445343, "lon": -123.3702142, "tags": {"amenity": "cafe", "brand": "Starbucks", "brand:wikidata": "Q37158", "brand:wikipedia": "en:Starbucks", "cuisine": "coffee_shop", "name": "Starbucks", "official_name": "Starbucks Coffee", "takeaway": "yes"}}, {"type": "node", "id": 7178488186, "lat": 48.426404, "lon": -123.3155807, "tags": {"addr:housenumber": "2207", "addr:postcode": "V8R 1G4", "addr:street": "Oak Bay Avenue", "amenity": "cafe", "name": "Hide & Seek Coffee", "opening_hours": "Mo-Sa 08:30-17:00; Su 10:00-16:00", "website": "http://hideandseekcoffee.ca"}}, {"type": "node", "id": 7552746578, "lat": 48.3881206, "lon": -123.6932767, "tags": {"amenity": "cafe", "name": "Tim Hortons"}}, {"type": "node", "id": 7703820876, "lat": 48.4254423, "lon": -123.3638853, "tags": {"amenity": "cafe", "name": "Empire Donuts"}}, {"type": "node", "id": 7703980516, "lat": 48.4266693, "lon": -123.316402, "tags": {"amenity": "cafe", "brand": "Starbucks", "brand:wikidata": "Q37158", "brand:wikipedia": "en:Starbucks", "cuisine": "coffee_shop", "name": "Starbucks", "official_name": "Starbucks Coffee", "takeaway": "yes"}}, {"type": "node", "id": 7703980517, "lat": 48.4262884, "lon": -123.3228849, "tags": {"amenity": "cafe", "name": "Good Earth Coffeehouse"}}, {"type": "node", "id": 7902939418, "lat": 48.4362094, "lon": -123.4194932, "tags": {"amenity": "cafe", "name": "Serious Coffee", "opening_hours": "Mo-Fr 06:00-14:00"}}, {"type": "node", "id": 7972409489, "lat": 48.4613637, "lon": -123.297932, "tags": {"addr:city": "Saanich", "addr:housenumber": "2560", "addr:postcode": "V8N 1B8", "addr:province": "BC", "addr:street": "Sinclair Road", "addr:unit": "B", "amenity": "cafe", "cuisine": "coffee_shop;smoothie", "name": "Jusu"}}, {"type": "node", "id": 8703856713, "lat": 48.4365067, "lon": -123.3884203}, {"type": "node", "id": 8703856714, "lat": 48.4365534, "lon": -123.3884714}, {"type": "node", "id": 8703918118, "lat": 48.4365544, "lon": -123.3882025}, {"type": "node", "id": 8703918121, "lat": 48.4366014, "lon": -123.3882524}, {"type": "node", "id": 8744288267, "lat": 48.5654474, "lon": -123.4126264, "tags": {"addr:housenumber": "2126B", "addr:street": "Keating Cross Road", "amenity": "cafe", "name": "Keating Coffee"}}, {"type": "node", "id": 8915262060, "lat": 48.4578085, "lon": -123.3769158, "tags": {"addr:housenumber": "771", "addr:street": "Vernon Avenue", "amenity": "cafe", "brand": "Starbucks", "brand:wikidata": "Q37158", "brand:wikipedia": "en:Starbucks", "cuisine": "coffee_shop", "name": "Starbucks", "official_name": "Starbucks Coffee", "takeaway": "yes"}}, {"type": "node", "id": 8915396577, "lat": 48.4242749, "lon": -123.367378, "tags": {"addr:city": "Victoria", "addr:housenumber": "608", "addr:province": "BC", "addr:street": "Broughton Street", "addr:unit": "108", "amenity": "cafe", "brand": "Xing Fu Tang", "brand:en": "Xing Fu Tang", "brand:wikidata": "Q95720330", "brand:wikipedia": "zh:\u5e78\u798f\u5802", "brand:zh": "\u5e78\u798f\u5802", "cuisine": "bubble_tea", "int_name": "Xing Fu Tang", "name": "Xing Fu Tang", "name:en": "Xing Fu Tang", "name:zh": "\u5e78\u798f\u5802", "takeaway": "yes"}}, {"type": "node", "id": 8920774205, "lat": 48.463888, "lon": -123.4998749}, {"type": "node", "id": 8920774206, "lat": 48.463866, "lon": -123.4998649}, {"type": "node", "id": 8920774207, "lat": 48.4638696, "lon": -123.4998469}, {"type": "node", "id": 8920774208, "lat": 48.4638409, "lon": -123.499834}, {"type": "node", "id": 8920774209, "lat": 48.4638373, "lon": -123.499852}, {"type": "node", "id": 8920774210, "lat": 48.4637499, "lon": -123.4998125}, {"type": "node", "id": 8920774211, "lat": 48.4637436, "lon": -123.4998442}, {"type": "node", "id": 8920774212, "lat": 48.4637306, "lon": -123.4998383}, {"type": "node", "id": 8920774213, "lat": 48.4637067, "lon": -123.4999584}, {"type": "node", "id": 8920774214, "lat": 48.4638579, "lon": -123.5000267}, {"type": "node", "id": 8930976466, "lat": 48.4614959, "lon": -123.3318311, "tags": {"addr:city": "Victoria", "addr:housenumber": "3749", "addr:postcode": "V8P 5N4", "addr:street": "Shelbourne Street", "amenity": "cafe", "cuisine": "coffee_shop", "drive_through": "no", "name": "Tim Hortons", "opening_hours": "24/7", "phone": "+1-250-380-9666"}}, {"type": "node", "id": 9033505734, "lat": 48.4235748, "lon": -123.3675087, "tags": {"amenity": "cafe", "name": "Sandwich Corner Cafe"}}, {"type": "node", "id": 9033507017, "lat": 48.4238512, "lon": -123.3670385, "tags": {"amenity": "cafe", "name": "Sounds Like Coffee"}}, {"type": "node", "id": 9036250502, "lat": 48.5643228, "lon": -123.4711736, "tags": {"amenity": "cafe", "name": "Annabelle\u2019s Caf\u00e9"}}, {"type": "node", "id": 9036453646, "lat": 48.4655202, "lon": -123.308218, "tags": {"amenity": "cafe", "name": "Munchie Bar", "website": "https://www.cinecenta.com/munchie-bar/"}}, {"type": "node", "id": 9038463572, "lat": 48.4291529, "lon": -123.3306303, "tags": {"amenity": "cafe", "name": "QV Coffee House"}}, {"type": "node", "id": 9109386567, "lat": 48.4175151, "lon": -123.370761}, {"type": "node", "id": 9109386618, "lat": 48.4176061, "lon": -123.3710374}, {"type": "node", "id": 9109386619, "lat": 48.4176859, "lon": -123.3710006}, {"type": "node", "id": 9109386620, "lat": 48.4175575, "lon": -123.3710458}, {"type": "node", "id": 9109386621, "lat": 48.4176933, "lon": -123.3710223}, {"type": "node", "id": 9109386622, "lat": 48.4175796, "lon": -123.3706887}, {"type": "node", "id": 9109386623, "lat": 48.4176147, "lon": -123.3705888}, {"type": "node", "id": 9109386624, "lat": 48.4175936, "lon": -123.3705908}, {"type": "node", "id": 9109386625, "lat": 48.4175342, "lon": -123.3707035}, {"type": "node", "id": 9109386626, "lat": 48.4175079, "lon": -123.3707098}, {"type": "node", "id": 9109386627, "lat": 48.4175511, "lon": -123.3710185}, {"type": "node", "id": 9719413996, "lat": 48.3476452, "lon": -123.5723236, "tags": {"amenity": "cafe", "diet:vegetarian": "no", "highchair": "1", "level": "0", "name": "Pedder Bay Caf\u00e9", "opening_hours": "Mo-Su 08:00-17:00", "outdoor_seating": "yes", "smoking": "no", "toilets": "yes", "toilets:wheelchair": "yes", "wheelchair": "yes"}}, {"type": "node", "id": 9727177367, "lat": 48.4374748, "lon": -123.3081752, "tags": {"amenity": "cafe", "name": "Ruth & Dean Restaurant & Bakery", "shop": "bakery", "website": "https://www.ruthanddean.com"}}, {"type": "node", "id": 9727545682, "lat": 48.4226243, "lon": -123.384735, "tags": {"addr:city": "Victoria", "addr:housenumber": "19", "addr:postcode": "V8V 5A6", "addr:province": "British Columbia", "addr:street": "Dallas Road", "addr:unit": "110", "amenity": "cafe", "cuisine": "coffee_shop", "internet_access": "yes", "internet_access:fee": "no", "name": "Coffeehouse at Shoal Point", "outdoor_seating": "yes", "payment:cash": "yes", "payment:contactless": "yes", "payment:credit_cards": "yes", "payment:debit_cards": "yes", "payment:mastercard": "yes", "payment:visa": "yes", "phone": "+12502988452"}}, {"type": "node", "id": 9938107590, "lat": 48.6477578, "lon": -123.3958195, "tags": {"amenity": "cafe", "name": "Gray's Cafe"}}, {"type": "node", "id": 10046315704, "lat": 48.416799, "lon": -123.3727427}, {"type": "node", "id": 10046315705, "lat": 48.416788, "lon": -123.3727487}, {"type": "node", "id": 10046315706, "lat": 48.4167983, "lon": -123.3727915}, {"type": "node", "id": 10046315707, "lat": 48.4167764, "lon": -123.3728035}, {"type": "node", "id": 10046315708, "lat": 48.4165979, "lon": -123.3728108}, {"type": "node", "id": 10115899968, "lat": 48.4452705, "lon": -123.5350107}, {"type": "node", "id": 10115899969, "lat": 48.4452781, "lon": -123.5348592}, {"type": "node", "id": 10115899970, "lat": 48.4452012, "lon": -123.5346809}, {"type": "node", "id": 10115899971, "lat": 48.44515, "lon": -123.5347311}, {"type": "node", "id": 10115899972, "lat": 48.4451368, "lon": -123.5349955}, {"type": "node", "id": 10245584024, "lat": 48.4059462, "lon": -123.4952706, "tags": {"amenity": "cafe", "building": "yes", "name": "Sequoia Coastal Coffee", "takeaway": "yes"}}, {"type": "node", "id": 10281167772, "lat": 48.4144412, "lon": -123.3562084, "tags": {"addr:housenumber": "313", "addr:street": "Cook Street", "amenity": "cafe", "name": "The Hot and Cold Cafe", "phone": "(778) 433-1007", "website": "http://www.thehotandcoldcafe.com/"}}, {"type": "node", "id": 10282460207, "lat": 48.4233408, "lon": -123.3690561, "tags": {"amenity": "cafe", "brand": "Starbucks", "brand:wikidata": "Q37158", "cuisine": "coffee_shop", "internet_access": "yes", "internet_access:fee": "no", "name": "Starbucks", "official_name": "Starbucks Coffee", "phone": "+1778-600-0401", "takeaway": "yes"}}, {"type": "node", "id": 10727112779, "lat": 48.4290716, "lon": -123.369466, "tags": {"addr:housenumber": "1623", "addr:street": "Store Street", "amenity": "cafe", "name": "The Sour Pickle Cafe"}}, {"type": "node", "id": 10795274907, "lat": 48.4286358, "lon": -123.3677192, "tags": {"addr:housenumber": "552", "addr:postcode": "V8W 1N7", "addr:street": "Pandora Avenue", "amenity": "cafe", "contact:facebook": "habitcoffee", "contact:instagram": "habitcoffee", "cuisine": "coffee_shop", "email": "info@habitcoffee.com", "name": "Habit Coffee", "opening_hours": "Mo-Fr 07:00-18:00; Sa-Su 08:00-18:00", "phone": "+1 250 294 1127", "website": "https://habitcoffee.com"}}, {"type": "way", "id": 34330760, "nodes": [393823717, 1568549521, 1568549509, 393823718, 1568549484, 1568549493, 393823719, 393823720, 1568549512, 1568549517, 393823717], "tags": {"amenity": "cafe", "building": "yes", "cuisine": "coffee_shop", "name": "Serious Coffee", "opening_hours": "Mo-Fr 05:30-17:00; Sa,Su 07:00-16:00"}}, {"type": "way", "id": 90536341, "nodes": [1050335799, 1050336169, 1050335925, 1050335763, 1050335799], "tags": {"amenity": "cafe", "brand": "Tim Hortons", "brand:wikidata": "Q175106", "brand:wikipedia": "en:Tim Hortons", "building": "yes", "cuisine": "coffee_shop", "drive_through": "yes", "name": "Tim Hortons", "takeaway": "yes"}}, {"type": "way", "id": 95038493, "nodes": [1102836519, 1102836469, 1102836623, 1102836437, 1102836624, 1102836519], "tags": {"amenity": "cafe", "building": "yes", "name": "Dutch Bakery & Diner", "source": "Bing"}}, {"type": "way", "id": 95194597, "nodes": [1104333730, 1104333719, 1104333671, 1104333636, 1104333730], "tags": {"addr:city": "Victoria", "addr:housenumber": "723", "addr:province": "BC", "addr:street": "Yates Street", "amenity": "cafe", "building": "yes", "building:cladding": "glassfront", "building:colour": "yellow", "building:levels": "3", "name": "Interactivity Board Game Cafe", "roof:shape": "flat"}}, {"type": "way", "id": 127877172, "nodes": [1414401363, 1414401351, 1414401352, 1414401360, 1414401364, 1414401363], "tags": {"amenity": "cafe", "brand": "Starbucks", "brand:wikidata": "Q37158", "brand:wikipedia": "en:Starbucks", "cuisine": "coffee_shop", "name": "Starbucks", "official_name": "Starbucks Coffee", "takeaway": "yes", "wheelchair": "yes"}}, {"type": "way", "id": 162332190, "nodes": [1742441956, 1742441937, 1742441944, 1742441951, 1742441954, 1742441962, 1742441959, 1742441958, 1742441956], "tags": {"addr:housenumber": "845", "addr:street": "Goldstream Avenue", "amenity": "cafe", "brand": "Tim Hortons", "brand:wikidata": "Q175106", "brand:wikipedia": "en:Tim Hortons", "building": "yes", "building:levels": "1", "cuisine": "coffee_shop", "drive_through": "yes", "name": "Tim Hortons", "takeaway": "yes"}}, {"type": "way", "id": 223564059, "nodes": [2324473810, 2324473803, 2324473800, 2324473804, 2324473810], "tags": {"addr:housenumber": "782", "addr:street": "Goldstream Avenue", "amenity": "cafe", "brand": "Starbucks", "brand:wikidata": "Q37158", "brand:wikipedia": "en:Starbucks", "building": "yes", "cuisine": "coffee_shop", "name": "Starbucks", "official_name": "Starbucks Coffee", "takeaway": "yes"}}, {"type": "way", "id": 252082637, "nodes": [2582011054, 2582011055, 10046315707, 10046315706, 10046315705, 10046315704, 2582011056, 10046315708, 2582011058, 2582011054], "tags": {"addr:housenumber": "277", "addr:street": "Menzies Street", "amenity": "cafe", "building": "yes", "name": "Discovery Coffee", "wheelchair": "limited"}}, {"type": "way", "id": 286473742, "nodes": [2901519620, 2901519621, 2901519622, 2901519623, 2901519620], "tags": {"addr:city": "Victoria", "addr:housenumber": "3990", "addr:postcode": "V8N 3E2", "addr:street": "Shelbourne Street", "amenity": "fast_food", "building": "yes", "cuisine": "coffee_shop", "drive_through": "yes", "internet_access": "wlan", "name": "Tim Hortons", "opening_hours": "24/7", "outdoor_seating": "yes", "phone": "+1-250-477-9922", "smoking": "no", "takeaway": "yes", "wheelchair": "yes"}}, {"type": "way", "id": 436172959, "nodes": [4340500926, 4340500927, 4340500915, 4340500918, 4340500937, 4340500939, 4340500938, 4340500935, 4340500930, 4340500931, 4340500926], "tags": {"addr:unit": "101", "amenity": "cafe", "brand": "Starbucks", "brand:wikidata": "Q37158", "brand:wikipedia": "en:Starbucks", "cuisine": "coffee_shop", "name": "Starbucks", "official_name": "Starbucks Coffee", "takeaway": "yes"}}, {"type": "way", "id": 436172961, "nodes": [4340405569, 4340405580, 4340405571, 4340405563, 4340405558, 4340405569], "tags": {"addr:unit": "109", "amenity": "cafe", "brand": "Tim Hortons", "brand:wikidata": "Q175106", "brand:wikipedia": "en:Tim Hortons", "cuisine": "coffee_shop", "drive_through": "yes", "name": "Tim Hortons", "takeaway": "yes"}}, {"type": "way", "id": 682798855, "nodes": [6395033954, 6395033952, 6395033960, 6395033956, 6395033957, 6395033961, 6395033959, 6395033950, 6395033948, 6395033951, 6395033949, 6395033955, 6395033953, 6395033958, 6395033954], "tags": {"amenity": "cafe", "building": "commercial", "name": "Tim Hortons", "source": "VicMap (vicmap.victoria.ca) Aerial Imagery (2017); Civil3D"}}, {"type": "way", "id": 715187460, "nodes": [6721912834, 6721912833, 6721912832, 6721912831, 6721912834], "tags": {"addr:housenumber": "850", "addr:street": "Terlane Avenue", "amenity": "cafe", "brand": "Starbucks", "brand:wikidata": "Q37158", "brand:wikipedia": "en:Starbucks", "building": "yes", "cuisine": "coffee_shop", "name": "Starbucks", "official_name": "Starbucks Coffee", "takeaway": "yes"}}, {"type": "way", "id": 721793769, "nodes": [6770998071, 6770998072, 6770998073, 6770998074, 6770998075, 6770998076, 6770998077, 6770998081, 6770998080, 6770998079, 6770998078, 6770998071], "tags": {"addr:housenumber": "777", "addr:postcode": "V8X 4V1", "addr:street": "Royal Oak Drive", "addr:unit": "550", "amenity": "cafe", "building": "yes", "cuisine": "coffee_shop", "name": "Starbucks", "toilets:wheelchair": "yes", "website": "https://www.starbucks.ca/", "wheelchair": "yes", "wifi": "free"}}, {"type": "way", "id": 759520680, "nodes": [7095032730, 7095031064, 7095031556, 7095032022, 7095032950, 7095031276, 7095031763, 7095032239, 7095031006, 7095031498, 7095031968, 7095032461, 7095031211, 7095031701, 7095032730], "tags": {"addr:city": "Saanich", "addr:housenumber": "4343", "addr:street": "Tyndall Avenue", "amenity": "cafe", "building": "yes", "internet_access": "yes", "name": "Township Coffee", "opening_hours": "Mo-Fr 07:00-18:00, Sa-Su 08:00-18:00", "outdoor_seating": "yes", "smoking": "no"}}, {"type": "way", "id": 939642488, "nodes": [8703918121, 8703918118, 8703856713, 8703856714, 8703918121], "tags": {"addr:housenumber": "418", "addr:postcode": "V9A 2V8", "addr:street": "Craigflower Road", "amenity": "cafe", "name": "Spiral Cafe", "outdoor_seating": "yes"}}, {"type": "way", "id": 964438718, "nodes": [8920774214, 8920774213, 8920774212, 8920774211, 8920774210, 8920774209, 8920774208, 8920774207, 8920774206, 8920774205, 8920774214], "tags": {"addr:housenumber": "701", "addr:street": "Treanor Avenue", "amenity": "cafe", "building": "yes", "name": "Starbucks"}}, {"type": "way", "id": 985353890, "nodes": [9109386627, 9109386567, 9109386626, 9109386625, 9109386624, 9109386623, 9109386622, 9109386619, 9109386621, 9109386618, 9109386620, 9109386627], "tags": {"addr:housenumber": "535", "addr:street": "Superior Street", "amenity": "cafe", "building": "retail", "building:levels": "1", "name": "Good Earth Coffeehouse"}}, {"type": "way", "id": 1105440495, "nodes": [10115899968, 10115899969, 10115899970, 10115899971, 10115899972, 10115899968], "tags": {"addr:housenumber": "3150", "addr:street": "Langford Lake Road", "amenity": "cafe", "brand": "Tim Hortons", "building": "yes", "cuisine": "coffee_shop", "drive_through": "yes", "not:brand:wikidata": "Q175106", "takeaway": "yes"}}]}