{"version": 0.6, "generator": "Overpass API 0.7.60 f4c14d41", "osm3s": {"timestamp_osm_base": "2023-04-23T19:28:21Z", "copyright": "The data included in this document is from www.openstreetmap.org. The data is made available under ODbL."}, "elements": [{"type": "node", "id": 34149027, "lat": 48.428697, "lon": -123.3315401, "tags": {"addr:housenumber": "1739", "addr:street": "Fort Street", "amenity": "pub", "name": "Christie's Carriage House Pub"}}, {"type": "node", "id": 251034680, "lat": 48.4258309, "lon": -123.3697787}, {"type": "node", "id": 280402065, "lat": 48.426652, "lon": -123.3150263, "tags": {"amenity": "pub", "name": "The Penny Farthing"}}, {"type": "node", "id": 287210925, "lat": 48.4286454, "lon": -123.3694791, "tags": {"amenity": "pub", "name": "Swans", "wheelchair": "yes"}}, {"type": "node", "id": 304172789, "lat": 48.4353596, "lon": -123.488094, "tags": {"amenity": "pub", "name": "Country Rose Pub"}}, {"type": "node", "id": 429412284, "lat": 48.4568765, "lon": -123.4591944}, {"type": "node", "id": 429412285, "lat": 48.4566901, "lon": -123.4593411}, {"type": "node", "id": 429412286, "lat": 48.4566331, "lon": -123.4593689}, {"type": "node", "id": 429412287, "lat": 48.4566058, "lon": -123.4592414}, {"type": "node", "id": 429412289, "lat": 48.4565892, "lon": -123.4592495}, {"type": "node", "id": 429412290, "lat": 48.4565732, "lon": -123.4591747}, {"type": "node", "id": 429412291, "lat": 48.4567273, "lon": -123.4590997}, {"type": "node", "id": 429412292, "lat": 48.4567153, "lon": -123.4590433}, {"type": "node", "id": 429412293, "lat": 48.4568775, "lon": -123.4589643}, {"type": "node", "id": 429412294, "lat": 48.456922, "lon": -123.4591723}, {"type": "node", "id": 429412298, "lat": 48.4567803, "lon": -123.4594324}, {"type": "node", "id": 461120673, "lat": 48.4259303, "lon": -123.3627821, "tags": {"amenity": "pub", "name": "Yates Street Taphouse"}}, {"type": "node", "id": 466988278, "lat": 48.4125387, "lon": -123.3390823, "tags": {"amenity": "pub", "name": "Ross Bay Pub"}}, {"type": "node", "id": 466996678, "lat": 48.4141967, "lon": -123.3564108, "tags": {"addr:housenumber": "301", "addr:postcode": "V8V 3X5", "addr:street": "Cook Street", "amenity": "pub", "name": "Beagle Pub", "opening_hours": "Su-Th 11:00-23:00; Fr-Sa 11:00-00:00", "phone": "+1-250-382-3301", "website": "http://www.beaglepub.com", "wheelchair": "yes"}}, {"type": "node", "id": 530690490, "lat": 48.4523682, "lon": -123.4338301, "tags": {"amenity": "pub", "name": "4 Mile Restaurant"}}, {"type": "node", "id": 530690530, "lat": 48.4522058, "lon": -123.433784, "tags": {"amenity": "bar", "name": "4 Mile Pub"}}, {"type": "node", "id": 630038410, "lat": 48.4257823, "lon": -123.3693167}, {"type": "node", "id": 630038440, "lat": 48.4256394, "lon": -123.369352}, {"type": "node", "id": 630038451, "lat": 48.4257952, "lon": -123.3694392}, {"type": "node", "id": 630038455, "lat": 48.4256525, "lon": -123.3694744}, {"type": "node", "id": 1101092268, "lat": 48.4257138, "lon": -123.3681325}, {"type": "node", "id": 1101092304, "lat": 48.4256861, "lon": -123.3678565}, {"type": "node", "id": 1101092318, "lat": 48.4258743, "lon": -123.368096}, {"type": "node", "id": 1101092349, "lat": 48.4258466, "lon": -123.3678199}, {"type": "node", "id": 1102757717, "lat": 48.4256552, "lon": -123.3681531}, {"type": "node", "id": 1102757770, "lat": 48.4256199, "lon": -123.3684319}, {"type": "node", "id": 1102757778, "lat": 48.4256822, "lon": -123.3697673}, {"type": "node", "id": 1102757785, "lat": 48.4247998, "lon": -123.3680408}, {"type": "node", "id": 1102757790, "lat": 48.4256814, "lon": -123.368418}, {"type": "node", "id": 1102757797, "lat": 48.4248303, "lon": -123.3680719}, {"type": "node", "id": 1102757807, "lat": 48.4247285, "lon": -123.3684597}, {"type": "node", "id": 1102757814, "lat": 48.4256273, "lon": -123.367871}, {"type": "node", "id": 1102757823, "lat": 48.424689, "lon": -123.368066}, {"type": "node", "id": 1102757836, "lat": 48.424866, "lon": -123.3684285}, {"type": "node", "id": 1102757842, "lat": 48.4255658, "lon": -123.3678848}, {"type": "node", "id": 1102757868, "lat": 48.4255937, "lon": -123.3681669}, {"type": "node", "id": 1216623325, "lat": 48.4471826, "lon": -123.4987122, "tags": {"addr:city": "Langford", "addr:housenumber": "737", "addr:postcode": "V9B 2X4", "addr:street": "Goldstream Avenue", "amenity": "pub", "name": "Darcy's Pub Westshore", "opening_hours": "11:00-24:00"}}, {"type": "node", "id": 1462030872, "lat": 48.4296101, "lon": -123.3709045}, {"type": "node", "id": 1462030873, "lat": 48.4296213, "lon": -123.3707014}, {"type": "node", "id": 1462030874, "lat": 48.4298971, "lon": -123.3709405}, {"type": "node", "id": 1462030876, "lat": 48.4299083, "lon": -123.3707374}, {"type": "node", "id": 1505759587, "lat": 48.4711507, "lon": -123.3612152}, {"type": "node", "id": 1505759588, "lat": 48.4711614, "lon": -123.3611294}, {"type": "node", "id": 1505759597, "lat": 48.4712321, "lon": -123.3612397}, {"type": "node", "id": 1505759598, "lat": 48.471234, "lon": -123.361226}, {"type": "node", "id": 1505759600, "lat": 48.4712546, "lon": -123.3612444}, {"type": "node", "id": 1505759602, "lat": 48.471256, "lon": -123.3612318}, {"type": "node", "id": 1505759610, "lat": 48.4713579, "lon": -123.3612735}, {"type": "node", "id": 1505759611, "lat": 48.4713591, "lon": -123.3612643}, {"type": "node", "id": 1505759616, "lat": 48.471417, "lon": -123.3612811}, {"type": "node", "id": 1505759617, "lat": 48.47142, "lon": -123.361258}, {"type": "node", "id": 1505759619, "lat": 48.4714568, "lon": -123.3612675}, {"type": "node", "id": 1505759620, "lat": 48.4714641, "lon": -123.3609548}, {"type": "node", "id": 1505759622, "lat": 48.4714667, "lon": -123.361195}, {"type": "node", "id": 1505759623, "lat": 48.4714697, "lon": -123.3609782}, {"type": "node", "id": 1505759627, "lat": 48.471496, "lon": -123.3612042}, {"type": "node", "id": 1505759630, "lat": 48.4715237, "lon": -123.3609947}, {"type": "node", "id": 1833783263, "lat": 48.4769905, "lon": -123.5319442, "tags": {"amenity": "pub", "name": "Jack's Place"}}, {"type": "node", "id": 1847733523, "lat": 48.4567163, "lon": -123.4594635}, {"type": "node", "id": 1847733528, "lat": 48.4568635, "lon": -123.459326}, {"type": "node", "id": 1847733529, "lat": 48.4568763, "lon": -123.4593856}, {"type": "node", "id": 1847733530, "lat": 48.4569008, "lon": -123.4593078}, {"type": "node", "id": 1924354867, "lat": 48.4152553, "lon": -123.3694898, "tags": {"amenity": "pub", "internet_access": "wlan", "name": "JBI Pub", "opening_hours": "Mo-Su 07:30-07:30,18:00-18:00"}}, {"type": "node", "id": 1998036706, "lat": 48.4590935, "lon": -123.5536416, "tags": {"amenity": "pub", "name": "Ma Miller\u2019s Pub"}}, {"type": "node", "id": 2274474717, "lat": 48.3946115, "lon": -123.6270135}, {"type": "node", "id": 2274474721, "lat": 48.3946294, "lon": -123.6269742}, {"type": "node", "id": 2274474724, "lat": 48.3946362, "lon": -123.6269968}, {"type": "node", "id": 2274474726, "lat": 48.3946415, "lon": -123.627114}, {"type": "node", "id": 2274474730, "lat": 48.3946627, "lon": -123.6270996}, {"type": "node", "id": 2274474734, "lat": 48.3946876, "lon": -123.6271829}, {"type": "node", "id": 2274474738, "lat": 48.3947217, "lon": -123.6271598}, {"type": "node", "id": 2274474740, "lat": 48.3947324, "lon": -123.6271957}, {"type": "node", "id": 2274474742, "lat": 48.394734, "lon": -123.6269032}, {"type": "node", "id": 2274474744, "lat": 48.39478, "lon": -123.6270567}, {"type": "node", "id": 2274474746, "lat": 48.3947962, "lon": -123.627108}, {"type": "node", "id": 2274474748, "lat": 48.3948073, "lon": -123.627145}, {"type": "node", "id": 2274474750, "lat": 48.3948201, "lon": -123.6270295}, {"type": "node", "id": 2274474752, "lat": 48.3948356, "lon": -123.6270813}, {"type": "node", "id": 2316614662, "lat": 48.4152108, "lon": -123.373393}, {"type": "node", "id": 2316614666, "lat": 48.4152259, "lon": -123.3733059}, {"type": "node", "id": 2316614667, "lat": 48.415241, "lon": -123.3733783}, {"type": "node", "id": 2316614668, "lat": 48.4153211, "lon": -123.3733837}, {"type": "node", "id": 2316614670, "lat": 48.415306, "lon": -123.3734614}, {"type": "node", "id": 2316614675, "lat": 48.4152989, "lon": -123.3732656}, {"type": "node", "id": 2316614676, "lat": 48.4153238, "lon": -123.3734534}, {"type": "node", "id": 2316614680, "lat": 48.4153096, "lon": -123.3733904}, {"type": "node", "id": 2316614682, "lat": 48.4152401, "lon": -123.3735191}, {"type": "node", "id": 2316614684, "lat": 48.4153087, "lon": -123.3734816}, {"type": "node", "id": 2644261624, "lat": 48.4202078, "lon": -123.2990093, "tags": {"amenity": "pub"}}, {"type": "node", "id": 2807465983, "lat": 48.4266118, "lon": -123.3148761, "tags": {"amenity": "bar", "name": "Vis A Vis"}}, {"type": "node", "id": 3320180972, "lat": 48.4315271, "lon": -123.3648974, "tags": {"addr:city": "Victoria", "addr:housenumber": "1900", "addr:province": "BC", "addr:street": "Douglas Street", "amenity": "bar", "cuisine": "regional", "name": "Citrus & Cane"}}, {"type": "node", "id": 3659659158, "lat": 48.4305462, "lon": -123.3450469, "tags": {"addr:city": "Victoria", "addr:housenumber": "1302", "addr:postcode": "V8R 1S1", "addr:street": "Gladstone Avenue", "amenity": "pub", "name": "The Fernwood Inn", "phone": "+1-250-412-2001", "website": "https://fernwoodinn.com/"}}, {"type": "node", "id": 3681399670, "lat": 48.4254608, "lon": -123.3679429, "tags": {"addr:city": "Victoria", "addr:housenumber": "1140", "addr:postcode": "V8W 1Y2", "addr:street": "Government Street", "amenity": "pub", "name": "The Churchill", "opening_hours": "Mo-Sa 11:00-01:00; Su 11:00-24:00", "smoking": "no", "website": "https://thechurchill.ca/"}}, {"type": "node", "id": 3762065479, "lat": 48.4234099, "lon": -123.3654549, "tags": {"amenity": "bar", "name": "Big Bad John's"}}, {"type": "node", "id": 3762065481, "lat": 48.4230502, "lon": -123.3653428, "tags": {"amenity": "pub", "name": "Rooftop Surfclub"}}, {"type": "node", "id": 3762065483, "lat": 48.4233333, "lon": -123.3654724, "tags": {"amenity": "bar", "name": "The Clubhouse"}}, {"type": "node", "id": 3762065484, "lat": 48.4230347, "lon": -123.3651917, "tags": {"amenity": "pub", "name": "The Games Room"}}, {"type": "node", "id": 3762065485, "lat": 48.4230674, "lon": -123.365511, "tags": {"addr:city": "Victoria", "addr:housenumber": "919", "addr:postcode": "V8W 2C2", "addr:street": "Douglas Street", "amenity": "pub", "name": "The Sticky Wicket", "phone": "+1-250-383-7137"}}, {"type": "node", "id": 3813340037, "lat": 48.4226438, "lon": -123.3636487, "tags": {"addr:city": "Victoria", "addr:housenumber": "777", "addr:postcode": "V8W 1C3", "addr:street": "Courtney Street", "amenity": "pub", "name": "Smiths Pub"}}, {"type": "node", "id": 3823567457, "lat": 48.4225954, "lon": -123.364212, "tags": {"addr:city": "Victoria", "addr:housenumber": "740", "addr:postcode": "V8W 1B2", "addr:street": "Burdett Avenue", "amenity": "bar", "name": "Clive's Classic Lounge"}}, {"type": "node", "id": 4308189295, "lat": 48.6494938, "lon": -123.4060962, "tags": {"amenity": "pub", "name": "Charles Dickens' Pub"}}, {"type": "node", "id": 4330495853, "lat": 48.4352075, "lon": -123.375443, "tags": {"addr:housenumber": "350B", "addr:postcode": "V8T 1P7", "addr:street": "Bay Street", "amenity": "pub", "craft": "brewery", "microbrewery": "yes", "name": "Moon Underwater", "opening_hours": "Mo-Th,Sa 11:30-23:00; Fr 11:30-00:00; Su 11:30-20:00", "phone": "+1-250-380-0706", "website": "https://www.moonunderwater.ca/"}}, {"type": "node", "id": 4348822067, "lat": 48.6408961, "lon": -123.4306597, "tags": {"amenity": "bar", "name": "Spinnakers"}}, {"type": "node", "id": 4988523391, "lat": 48.4300678, "lon": -123.3679859, "tags": {"addr:housenumber": "543", "addr:street": "Herald Street", "amenity": "bar", "name": "Shadow Mountain"}}, {"type": "node", "id": 5019024721, "lat": 48.4251796, "lon": -123.3693342, "tags": {"addr:city": "Victoria", "addr:housenumber": "506", "addr:postcode": "V8W 1E6", "addr:street": "Fort Street", "addr:unit": "102", "amenity": "bar", "cuisine": "regional", "name": "Little Jumbo", "name:en": "Little Jumbo", "opening_hours": "Mo 17:00-23:00; Tu-Th 17:00-24:00; Fr-Sa 17:00-01:00; Su 17:00-24:00", "phone": "+1-778-433-5535", "website": "https://littlejumbo.ca/"}}, {"type": "node", "id": 5577664254, "lat": 48.4397445, "lon": -123.3584773}, {"type": "node", "id": 5577664255, "lat": 48.4397582, "lon": -123.358368}, {"type": "node", "id": 5577664256, "lat": 48.4397471, "lon": -123.3583648}, {"type": "node", "id": 5577664257, "lat": 48.4397526, "lon": -123.3583215}, {"type": "node", "id": 5577664258, "lat": 48.4396319, "lon": -123.358287}, {"type": "node", "id": 5577664259, "lat": 48.4396663, "lon": -123.3580139}, {"type": "node", "id": 5577664260, "lat": 48.4396757, "lon": -123.3580166}, {"type": "node", "id": 5577664261, "lat": 48.4396806, "lon": -123.3579776}, {"type": "node", "id": 5577664262, "lat": 48.4398785, "lon": -123.3580342}, {"type": "node", "id": 5577664263, "lat": 48.4398739, "lon": -123.358071}, {"type": "node", "id": 5577664264, "lat": 48.4398895, "lon": -123.3580755}, {"type": "node", "id": 5577664265, "lat": 48.4398804, "lon": -123.3581477}, {"type": "node", "id": 5577664266, "lat": 48.4398853, "lon": -123.3581491}, {"type": "node", "id": 5577664267, "lat": 48.4398791, "lon": -123.3581988}, {"type": "node", "id": 5577664268, "lat": 48.4398585, "lon": -123.3581929}, {"type": "node", "id": 5577664269, "lat": 48.4398199, "lon": -123.3584989}, {"type": "node", "id": 5872595287, "lat": 48.4283938, "lon": -123.3690362, "tags": {"addr:housenumber": "517", "addr:street": "Pandora Avenue", "amenity": "bar", "name": "Drake Eatery"}}, {"type": "node", "id": 5879387278, "lat": 48.4290232, "lon": -123.3851333, "tags": {"amenity": "pub", "email": "spinnakers@spinnakers.com", "name": "Spinnakers Brewpub", "outdoor_seating": "yes", "phone": "+1-250-386-2739", "website": "https://www.spinnakers.com/"}}, {"type": "node", "id": 6086291185, "lat": 48.4320595, "lon": -123.367541, "tags": {"amenity": "pub", "brewery": "yes", "craft": "brewery", "internet_access": "wlan", "microbrewery": "yes", "name": "Phillips Tasting Room", "phone": "+1-250-380-1912", "website": "https://phillipsbeer.com"}}, {"type": "node", "id": 6268965106, "lat": 48.4212559, "lon": -123.3675223, "tags": {"amenity": "bar", "level": "1", "name": "Bengal Lounge"}}, {"type": "node", "id": 6268965116, "lat": 48.4218429, "lon": -123.3678337, "tags": {"alt_name": "Harbourside Room", "amenity": "bar", "indoor": "room", "level": "1", "name": "Q bar"}}, {"type": "node", "id": 6268965121, "lat": 48.421625, "lon": -123.368002, "tags": {"amenity": "bar", "covered": "yes", "level": "1", "name": "Veranda", "seasonal": "yes"}}, {"type": "node", "id": 6361371489, "lat": 48.4271995, "lon": -123.363383, "tags": {"addr:housenumber": "726", "addr:street": "Johnson Street", "amenity": "bar", "name": "The Vicious Poodle"}}, {"type": "node", "id": 6751689085, "lat": 48.4267653, "lon": -123.370091, "tags": {"addr:city": "Victoria", "addr:housenumber": "1245", "addr:province": "BC", "addr:street": "Wharf Street", "amenity": "pub", "name": "JR Slims"}}, {"type": "node", "id": 6835670356, "lat": 48.4297074, "lon": -123.3526021}, {"type": "node", "id": 6835670360, "lat": 48.4297193, "lon": -123.3528474}, {"type": "node", "id": 6835689486, "lat": 48.4297781, "lon": -123.3528391}, {"type": "node", "id": 6835689487, "lat": 48.4297585, "lon": -123.3525247}, {"type": "node", "id": 6835689488, "lat": 48.4297022, "lon": -123.3525308}, {"type": "node", "id": 7057283347, "lat": 48.4610754, "lon": -123.2965539}, {"type": "node", "id": 7057283348, "lat": 48.4610188, "lon": -123.2964566}, {"type": "node", "id": 7057283349, "lat": 48.4609605, "lon": -123.2964508}, {"type": "node", "id": 7057283350, "lat": 48.4609129, "lon": -123.2965138}, {"type": "node", "id": 7057283351, "lat": 48.4609967, "lon": -123.2966579}, {"type": "node", "id": 7841188085, "lat": 48.4281147, "lon": -123.3685251, "tags": {"amenity": "bar", "name": "Whistle Buoy Brewing Company"}}, {"type": "node", "id": 8185277480, "lat": 48.4620963, "lon": -123.3342198}, {"type": "node", "id": 8185277486, "lat": 48.4623649, "lon": -123.3333213}, {"type": "node", "id": 8185282625, "lat": 48.462074, "lon": -123.3342363}, {"type": "node", "id": 8185282629, "lat": 48.4624624, "lon": -123.3330833}, {"type": "node", "id": 8185282668, "lat": 48.4620852, "lon": -123.3342679}, {"type": "node", "id": 8185282672, "lat": 48.4624624, "lon": -123.3330733}, {"type": "node", "id": 8185282706, "lat": 48.4621066, "lon": -123.3342508}, {"type": "node", "id": 8185282718, "lat": 48.4625033, "lon": -123.3332678}, {"type": "node", "id": 8185282761, "lat": 48.4625023, "lon": -123.3330828}, {"type": "node", "id": 8185282820, "lat": 48.4624878, "lon": -123.333306}, {"type": "node", "id": 8185282873, "lat": 48.4624876, "lon": -123.333268}, {"type": "node", "id": 8185282922, "lat": 48.4624651, "lon": -123.3333201}, {"type": "node", "id": 8185282964, "lat": 48.4620653, "lon": -123.3342118}, {"type": "node", "id": 8185282970, "lat": 48.462465, "lon": -123.3333063}, {"type": "node", "id": 8185283015, "lat": 48.4619247, "lon": -123.3343241}, {"type": "node", "id": 8185283019, "lat": 48.4623636, "lon": -123.3330744}, {"type": "node", "id": 8613566427, "lat": 48.4619924, "lon": -123.3345155}, {"type": "node", "id": 8613566428, "lat": 48.4621328, "lon": -123.3344026}, {"type": "node", "id": 8915413169, "lat": 48.430473, "lon": -123.401441, "tags": {"addr:city": "Esquimalt", "addr:housenumber": "900", "addr:province": "BC", "addr:street": "Carlton Terrace", "amenity": "bar", "name": "Carlton Club Cabaret"}}, {"type": "node", "id": 9349975187, "lat": 48.4645918, "lon": -123.3079384, "tags": {"amenity": "pub", "name": "Felicita\u2019s Campus Pub", "website": "https://www.felicitas.ca/"}}, {"type": "node", "id": 9429047065, "lat": 48.4454505, "lon": -123.4696297, "tags": {"addr:city": "Colwood", "addr:housenumber": "328", "addr:street": "Wale Road", "amenity": "pub", "name": "328 Taphouse + Grill"}}, {"type": "way", "id": 36926247, "nodes": [429412284, 1847733530, 1847733528, 1847733529, 429412298, 1847733523, 429412285, 429412286, 429412287, 429412289, 429412290, 429412291, 429412292, 429412293, 429412294, 429412284], "tags": {"amenity": "pub", "building": "yes", "name": "Six Mile Pub"}}, {"type": "way", "id": 94845557, "nodes": [1101092268, 1101092304, 1101092349, 1101092318, 1101092268], "tags": {"amenity": "pub", "building": "yes", "name": "Irish Times", "source": "Bing", "wheelchair": "yes"}}, {"type": "way", "id": 95035860, "nodes": [1102757717, 1102757814, 1102757842, 1102757868, 1102757717], "tags": {"addr:city": "Victoria", "addr:housenumber": "66", "addr:street": "Bastion Square", "amenity": "pub", "building": "yes", "building:cladding": "glassfront", "building:colour": "Bisque", "building:levels": "2", "name": "Garrick's Head", "opening_hours": "Su 11:00-24:00; Mo-Sa 11:00-01:00", "outdoor_seating": "yes", "phone": "+1-250-384-6835", "source": "Bing", "takeaway": "yes", "website": "https://garrickshead.com/"}}, {"type": "way", "id": 95035867, "nodes": [1102757778, 251034680, 630038451, 630038410, 630038440, 630038455, 1102757778], "tags": {"addr:housenumber": "1127", "addr:street": "Wharf Street", "amenity": "pub", "building": "yes", "name": "Darcy's Pub", "source": "Bing", "wheelchair": "yes"}}, {"type": "way", "id": 95035883, "nodes": [1102757790, 1102757717, 1102757868, 1102757770, 1102757790], "tags": {"amenity": "pub", "building": "yes", "building:cladding": "glassfront", "building:colour": "Bisque", "building:levels": "2", "name": "Garrick's Pub", "source": "Bing"}}, {"type": "way", "id": 95035888, "nodes": [1102757836, 1102757797, 1102757785, 1102757823, 1102757807, 1102757836], "tags": {"amenity": "pub", "building": "yes", "name": "The Bard and the Banker", "source": "Bing"}}, {"type": "way", "id": 132894559, "nodes": [1462030873, 1462030872, 1462030874, 1462030876, 1462030873], "tags": {"addr:housenumber": "450", "addr:postcode": "V8W 1S3", "addr:street": "Swift Street", "amenity": "pub", "brewery": "yes", "building": "yes", "cuisine": "regional", "name": "CRAFT Beer Market", "opening_hours": "Mo-Th 11:00-24:00; Fr 11:00-25:00; Sa 10:00-25:00; Su 10:00-24:00", "phone": "+1-250-361-1940", "smoking": "no", "website": "https://www.craftbeermarket.ca/", "wheelchair": "yes"}}, {"type": "way", "id": 137276428, "nodes": [1505759627, 1505759630, 1505759623, 1505759620, 1505759588, 1505759587, 1505759597, 1505759598, 1505759602, 1505759600, 1505759610, 1505759611, 1505759616, 1505759617, 1505759619, 1505759622, 1505759627], "tags": {"amenity": "pub", "building": "yes", "name": "The Monkey Tree Pub"}}, {"type": "way", "id": 218172827, "nodes": [2274474752, 2274474750, 2274474744, 2274474742, 2274474721, 2274474724, 2274474717, 2274474726, 2274474730, 2274474734, 2274474738, 2274474740, 2274474748, 2274474746, 2274474752], "tags": {"amenity": "pub", "building": "yes", "name": "17 Mile House"}}, {"type": "way", "id": 222717948, "nodes": [2316614684, 2316614682, 2316614662, 2316614667, 2316614666, 2316614675, 2316614668, 2316614680, 2316614676, 2316614670, 2316614684], "tags": {"addr:housenumber": "512", "addr:street": "Simcoe Street", "amenity": "pub", "building": "yes", "name": "The Bent Mast"}}, {"type": "way", "id": 583405636, "nodes": [5577664269, 5577664268, 5577664267, 5577664266, 5577664265, 5577664264, 5577664263, 5577664262, 5577664261, 5577664260, 5577664259, 5577664258, 5577664257, 5577664256, 5577664255, 5577664254, 5577664269], "tags": {"addr:housenumber": "1028", "addr:street": "Hillside Avenue", "amenity": "pub", "building": "yes", "building:levels": "2", "name": "5th Street Bar & Grill"}}, {"type": "way", "id": 729721718, "nodes": [6835689486, 6835689487, 6835689488, 6835670356, 6835670360, 6835689486], "tags": {"amenity": "pub", "building": "yes", "name": "Logan's Pub"}}, {"type": "way", "id": 755544549, "nodes": [7057283351, 7057283350, 7057283349, 7057283348, 7057283347, 7057283351], "tags": {"addr:city": "Saanich", "addr:housenumber": "2581", "addr:postcode": "V8N 1G4", "addr:street": "Penrhyn Street", "amenity": "pub", "building": "yes", "internet_access": "no", "name": "Smuggler's Cove", "website": "http://www.smugglerscovepub.com/"}}, {"type": "way", "id": 879934632, "nodes": [8613566427, 8613566428, 8185282668, 8185282706, 8185277480, 8185282625, 8185282964, 8185283015, 8613566427], "tags": {"addr:city": "Victoria", "addr:housenumber": "1550", "addr:postcode": "V8P 2P4", "addr:street": "Cedar Hill Cross Road", "amenity": "pub", "building": "yes", "name": "Fifteen Fifty's Pub Style Restaurant", "opening_hours": "Mo-Th 11:00-23:00; Fr 11:00-24:00; Sa 09:00-24:00; Su 09:00-23:00", "phone": "+1-250-472-0047", "website": "https://www.1550srestaurant.com/"}}, {"type": "way", "id": 879934635, "nodes": [8185282761, 8185282629, 8185282672, 8185283019, 8185277486, 8185282922, 8185282970, 8185282820, 8185282873, 8185282718, 8185282761], "tags": {"addr:city": "Victoria", "addr:housenumber": "3810", "addr:postcode": "V8P 4H5", "addr:street": "Shelbourne Street", "amenity": "pub", "building": "yes", "name": "Maude Hunter's Pub", "opening_hours": "Mo-Th 11:30-24:00; Fr-Sa 11:00-24:00; Su 11:00-23:00", "phone": "+1-250-721-2337", "smoking": "no"}}]}